#dP2021  4 11  0  0  0.00000000      96 __u+U ITR00 EXT  IAC
## 2153      0.00000000   900.00000000 59315 0.0000000000000
+  116   C06C07C08C09C10C11C12C13C14C16C19C20C21C22C23C24C25
+        C26C27C28C29C30C32C33C34C35C36C37C38C39C40C41C42C43
+        C44C45C46E01E02E03E04E05E07E08E09E11E12E13E14E15E18
+        E19E21E24E25E26E27E30E31E33E36G01G02G03G04G05G06G07
+        G08G09G10G12G13G14G15G16G17G18G19G20G21G22G23G24G25
+        G26G27G28G29G30G31G32J01J02J03R01R02R03R04R05R07R08
+        R09R11R12R13R14R15R16R17R18R19R20R21R22R24  0  0  0
++         9  9  8  9  7 10  8 10 10  9 10  9  8  8  7  8  7
++        10  7  9  8  9  8  8  8 10  8  9 10  9 11  9  8  8
++        10  9  8  6  7  7  7  8  8  7  7  7  9  8  7  7  8
++         7  8  8  8  7  7  7  8  6  8  8  9  7  8  6  7  8
++         8  8  6  8  7  8  6  8  8  8  8  8  8  7  7  8  7
++         6  8  0  7  7  6  7 12  9  8  7  8  7  8  8  7  8
++         9  8  7  9  8 10 10 10  8  7  9  8  8  9  0  0  0
%c M  cc GPS ccc cccc cccc cccc cccc ccccc ccccc ccccc ccccc
%c cc cc ccc ccc cccc cccc cccc cccc ccccc ccccc ccccc ccccc
%f  0.0000000  0.000000000  0.00000000000  0.000000000000000
%f  0.0000000  0.000000000  0.00000000000  0.000000000000000
%i    0    0    0    0      0      0      0      0         0
%i    0    0    0    0      0      0      0      0         0
/* IAC                                ULTRA-RAPID PREDICTION
/* S/V CLOCKS ARE ALIGNED TO GNSS TIME                      
/* G:C1WC2W R:C1PC2P E:C1XC5X C:C2IC6I J:C1CC2S             
/* PCV:IGS14_2148 OL/AL:FES2004  NONE     YN ORB:CoN CLK:CoN
*  2021 04 11  7  0  0.00000000
PC06  -7441.211398  27717.189491 -30259.870219    266.522945
PC07 -22429.303452  24919.855133  25522.349834   -108.644437
PC08 -19139.635715  37601.301780   3885.713569   -892.990986
PC09   5054.118276  35979.960762 -20720.520103    604.056074
PC10  -6393.119151  27202.370980  31691.880559    -58.246038
PC11  12467.301721  -9038.269957 -23211.133660   -816.144003
PC12  18662.502104  10263.116750 -18005.426910    935.013378
PC13  -9973.804994  39913.648131  -9675.893994    216.889067
PC14  23584.626843  -8118.691958  12604.210854    438.627339
PC16  -3567.147463  30158.507004 -29031.835061   -777.820150
PC19 -15499.800923  12908.051092 -19244.097118    794.476463
PC20 -27207.845367   2953.718364  -5349.749232   -951.671960
PC21  23215.325765   9279.438213 -12397.608168   -935.329630
PC22   5583.663063  15689.962444 -22386.467066   -957.983218
PC23   2104.496699 -23439.369501 -14995.985441   -886.493478
PC24  20074.279529  -8550.802613  17372.369458   -810.187523
PC25  14916.723097 -23547.135030   1079.900248   -934.325118
PC26  13315.889444   9268.225282  22696.883696    922.648925
PC27 -17837.549554 -18648.785551  10629.741217    513.509749
PC28  -7928.228577 -25844.726456  -6920.669599    -87.657175
PC29  -5937.939810  18128.902427  20356.865554    377.245360
PC30 -17492.527128   -418.822145  21739.551395    459.375766
PC32 -23240.680567  -9152.531425  12453.865265   -936.888538
PC33  15522.282372 -13009.088255  19218.672413   -942.001190
PC34  17242.901165   -384.133449 -21941.993197   -698.535574
PC35   8557.203706  25541.768183   7205.945066   -332.501354
PC36 -15642.971475  23066.224437  -1401.388138   -732.557190
PC37 -12554.384924 -10371.096160 -22647.786639   -893.783122
PC38 -16428.287463  38900.621765    -65.414435    141.536975
PC39    526.202915  31534.745468 -27911.798554     30.200655
PC40 -11828.420770  22090.667204  33893.870668    149.981797
PC41  -5259.849898 -15774.156549  22465.352124   -942.331391
PC42  27395.640001  -2581.798311   4746.498220   -926.220557
PC43   6485.377773 -17797.369060 -20508.828260   -680.290080
PC44  18458.990144  18105.952468 -10456.324575    131.787284
PC45  -2056.212309  23377.574536  15115.010077    410.736693
PC46 -20093.514950   9602.872397 -16835.891878    321.554172
PE01  17556.006410   7296.644966  22681.088133  -1084.540543
PE02 -17671.396779  -7195.235053 -22640.638479    211.363126
PE03 -24764.275388 -15958.819601   2801.956286   -418.844120
PE04  25539.981293   2135.596274  14820.007443   -747.731915
PE05  -9435.486756 -20615.381198  19035.948707   -289.766645
PE07 -11219.309403  13201.392026 -23989.697207   -524.142876
PE08 -25380.377738  -1833.818500 -15106.067556   6019.394429
PE09  10946.738496 -13230.336983  24119.253963   5704.752952
PE11   9193.796595 -23798.273084 -15035.483518   6107.705389
PE12  15999.915535  -3761.664501 -24617.787459   5265.472381
PE13  -9297.068324  23495.892036  15411.984065    414.856225
PE14  -5439.018241  15138.638257  17826.624297  -1392.949286
PE15 -15913.268899   3807.580404  24673.206324    820.052695
PE18  13375.325328 -15502.750835 -24778.314725  -1523.825667
PE19  23683.466688  17049.630455  -4939.695449    249.370141
PE21  -1092.551304  18688.882931  22923.222155   -658.678224
PE24  20365.903226 -19388.370649  -9222.876921   -840.965296
PE25   1283.807753 -18755.295842 -22861.480347   -530.715670
PE26   3144.592030  29202.318883  -3649.846207   1937.967670
PE27 -19791.571674  19678.647146   9874.734587     -8.741386
PE30 -26730.282725   8281.900914  -9685.846911   3034.338971
PE31  26727.543812  -9089.941161   8894.019203   -480.048301
PE33  13150.018126  18069.715394 -19395.992562   -467.428920
PE36  -2793.899050 -29330.830369   2927.504599   -192.137019
PG01 -13423.431460  16872.967588  15020.587250    719.220114
PG02  13687.028952   7735.259036 -20748.312218   -594.604352
PG03 -21936.084676  13063.092461  -7189.476409   -133.566264
PG04 -13934.246785   7488.377445 -21337.371393   -191.206672
PG05  24910.003075  -2925.852811  -9173.074086    -38.757807
PG06   7209.427399  19818.788428 -16048.319584      6.411253
PG07  -6779.428339  25218.993390  -2681.786772    118.487655
PG08 -19714.027880   -216.824655  17934.969367    -17.087137
PG09  -3600.975757  16170.618748 -20817.289566   -338.054656
PG10  -4789.718401 -14327.698872  21957.809608    -99.615620
PG12  24089.961239 -10037.760944  -4742.413148    -26.240388
PG13  20980.208820  10221.565675  12668.901833    118.535338
PG14   3045.432380  15029.054127  21674.513157     96.829658
PG15  19856.793621  -2259.743097  17299.848911   -156.973854
PG16 -24014.709589  -2157.252161 -11891.119224   -307.896301
PG17  11193.044158  21385.921506  11504.581935    424.507229
PG18   4850.103595 -26069.705747    729.958807    351.614014
PG19  17021.656240  20277.080017   2457.085130    -14.474040
PG20  16680.801644 -17551.272262  10500.230652    523.294144
PG21 -15375.358092   8873.193488  20334.886713    110.114216
PG22 -24653.318327   9205.410448   2941.266714   -640.556479
PG23   7713.704221 -17017.856845  18839.688431    114.095040
PG24  14798.321638 -11938.052374  18142.798669     -0.089950
PG25  14299.732048 -16440.875725 -15258.788093    116.349986
PG26 -17675.607765  -7395.190586 -18559.452688     70.574608
PG27 -22513.273578 -11081.237508   9088.042372   -110.623992
PG28   5333.266543  14301.991283  22284.618101    588.528560
PG29   3900.984856 -15776.273678 -21045.004228   -327.958732
PG30   2058.503300  24566.180409   9629.433883   -411.226070
PG31  -9231.280718 -17255.478640 -17823.273193   -110.909337
PG32 -14063.843547 -20567.356371   9549.144523     22.078439
PJ01 -30795.033234  14959.240407 -20017.396597   -364.342384
PJ02 -29625.655407  29973.101110   7293.179039      5.230209
PJ03 -25756.374307  23283.395417  28973.503401     -3.184302
PR01 -24220.375580   -919.188944  -7919.038592     77.711051
PR02  -9268.023537   8612.505442 -22112.946048    474.360040
PR03   9745.801952  12004.994432 -20223.044479     34.014589
PR04  23012.499790   8472.256226  -6981.798902     81.888245
PR05  23379.721351    361.340716  10185.086581     69.782464
PR07 -10437.957776 -12045.325641  19971.934103    -42.544520
PR08 -23012.255082  -8531.362723   7046.238369    -58.467482
PR09  14663.879743 -20273.549557  -5132.907478    -12.635499
PR11 -11311.016395  -3304.660382 -22614.094755      1.088791
PR12 -18813.634633  12053.353154 -12305.323989    219.912819
PR13 -14956.571357  20151.836224   4552.728036    -53.271984
PR14  -2068.762872  16320.903516  19495.780235     63.024278
PR15  11649.578350   3163.817617  22485.308660    104.435949
PR16  18612.975100 -13030.292510  11435.153881    -13.649726
PR17   6912.687434  24521.633923   1562.807184    415.242731
PR18  12074.332004  16999.019889 -14637.609133     72.809319
PR19  11026.161091   1623.163802 -22944.736075   -139.321521
PR20   3158.029582 -18050.161909 -17763.162338    -47.070070
PR21  -7369.243417 -24408.322664   -334.434648   -200.911068
PR22 -12109.092769 -16325.954822  15464.806588   -107.209936
PR24  -2882.658831  18673.962185  17154.744281     38.410684
EOF
